IRIDIUM 36 [-]          
1 24967U 97056C   23289.85777490  .00001119  00000+0  37542-3 0  9991
2 24967  86.3948  68.8099 0002071  96.6016 263.5417 14.36454610364719
IRIDIUM 39 [-]          
1 25042U 97069D   23289.94927825  .00001374  00000+0  36861-3 0  9995
2 25042  86.3872 112.0659 0018527 172.5600 187.5882 14.47417684361046
IRIDIUM 38 [-]          
1 25043U 97069E   23290.49983825  .00000741  00000+0  24391-3 0  9992
2 25043  86.3937 129.0586 0001643  17.3620 342.7633 14.36918252358775
IRIDIUM 42 [-]          
1 25077U 97077A   23289.63728617  .00000703  00000+0  23912-3 0  9994
2 25077  86.3952 134.8469 0001675  71.0192 289.1186 14.35230695353734
IRIDIUM 44 [-]          
1 25078U 97077B   23289.62018965  .00000849  00000+0  26880-3 0  9990
2 25078  86.3916 118.4174 0001244 150.5493 209.5776 14.39020171356009
IRIDIUM 45 [-]          
1 25104U 97082A   23289.62038923  .00011843  00000+0  75678-3 0  9997
2 25104  86.3777 336.4072 0180689  44.9954 316.5753 14.95909853360219
IRIDIUM 24 [-]          
1 25105U 97082B   23290.49472122  .00000889  00000+0  27175-3 0  9995
2 25105  86.3931 338.0625 0009425 290.7334  69.2855 14.40781154355788
IRIDIUM 51 [-]          
1 25262U 98018A   23289.64942126  .00013016  00000+0  72054-3 0  9992
2 25262  86.3970 346.9161 0164614 359.5702   0.5361 15.02775038354594
